[{"OBJECT_NAME":"STARLINK-32727","OBJECT_ID":"2025-018Y","EPOCH":"2026-03-09T22:06:14.412960","MEAN_MOTION":15.30214094,"ECCENTRICITY":0.00018273,"INCLINATION":53.16,"RA_OF_ASC_NODE":305.6858,"ARG_OF_PERICENTER":165.6623,"MEAN_ANOMALY":194.443,"EPHEMERIS_TYPE":0,"CLASSIFICATION_TYPE":"U","NORAD_CAT_ID":62828,"ELEMENT_SET_NO":999,"REV_AT_EPOCH":6419,"BSTAR":0.00098132864,"MEAN_MOTION_DOT":0.00028831,"MEAN_MOTION_DDOT":0},{"OBJECT_NAME":"ATLAS 5 CENTAUR R\/B","OBJECT_ID":"2013-072P","EPOCH":"2026-03-09T21:36:10.628064","MEAN_MOTION":14.96443736,"ECCENTRICITY":0.0189428,"INCLINATION":120.4328,"RA_OF_ASC_NODE":111.5185,"ARG_OF_PERICENTER":160.796,"MEAN_ANOMALY":200.0359,"EPHEMERIS_TYPE":0,"CLASSIFICATION_TYPE":"U","NORAD_CAT_ID":39475,"ELEMENT_SET_NO":999,"REV_AT_EPOCH":9970,"BSTAR":0.00054929733,"MEAN_MOTION_DOT":8.701e-5,"MEAN_MOTION_DDOT":0}]
